IRIDIUM 135             
1 43070U 17083A   26164.94221250  .00000012  00000+0 -29107-5 0  9994
2 43070  86.3959 323.3724 0002058  91.5502 268.5930 14.34217579443688
IRIDIUM 138             
1 43071U 17083B   26164.89781341  .00000100  00000+0  28639-4 0  9996
2 43071  86.3975 323.0860 0002334  86.5751 273.5711 14.34218630443662
IRIDIUM 116             
1 43072U 17083C   26164.93586945  .00000059  00000+0  13867-4 0  9995
2 43072  86.3960 323.3609 0001917  97.1559 262.9855 14.34217955443706
IRIDIUM 130             
1 43073U 17083D   26164.90415647 -.00000029  00000+0 -17587-4 0  9995
2 43073  86.3966 323.6493 0001828  90.5684 269.5722 14.34217217443644
IRIDIUM 151             
1 43074U 17083E   26164.94855532  .00000022  00000+0  91897-6 0  9990
2 43074  86.3963 323.4134 0002145  92.4903 267.6539 14.34217647443675
IRIDIUM 134             
1 43075U 17083F   26164.91684175  .00000039  00000+0  68316-5 0  9998
2 43075  86.3964 323.4345 0002083  90.2271 269.9163 14.34217951443638
IRIDIUM 137             
1 43076U 17083G   26164.92952721  .00000052  00000+0  11426-4 0  9999
2 43076  86.3965 323.5220 0002158 103.6241 256.5196 14.34217887443706
IRIDIUM 141             
1 43077U 17083H   26164.92318479  .00000015  00000+0 -17992-5 0  9991
2 43077  86.3957 323.3556 0002090  90.8474 269.2961 14.34217598443708
IRIDIUM 153             
1 43078U 17083J   26164.87536393  .00000018  00000+0 -72420-6 0  9994
2 43078  86.3957 291.8557 0002284  90.0509 270.0949 14.34217678444802
IRIDIUM 131             
1 43079U 17083K   26164.91049909  .00000097  00000+0  27579-4 0  9991
2 43079  86.3967 323.5465 0002204  91.9216 268.2232 14.34218316443636
IRIDIUM 144             
1 43249U 18030A   26164.88170542  .00000052  00000+0  11361-4 0  9990
2 43249  86.3956 291.7822 0002083  96.1074 264.0359 14.34218015429667
IRIDIUM 149             
1 43250U 18030B   26164.88804874  .00000012  00000+0 -28919-5 0  9999
2 43250  86.3952 291.7467 0002138  93.4710 266.6730 14.34217616429687
IRIDIUM 157             
1 43251U 18030C   26164.83730795  .00000017  00000+0 -95707-6 0  9990
2 43251  86.3956 291.8209 0002189  93.9661 266.1785 14.34217747429650
IRIDIUM 140             
1 43252U 18030D   26164.85633566  .00000016  00000+0 -12020-5 0  9996
2 43252  86.3954 291.8257 0002009  93.1887 266.9539 14.34217576429717
IRIDIUM 145             
1 43253U 18030E   26164.84364998  .00000066  00000+0  16480-4 0  9993
2 43253  86.3955 291.8031 0001939  99.8726 260.2689 14.34217605429643
IRIDIUM 146             
1 43254U 18030F   26164.89439135  .00000009  00000+0 -39746-5 0  9994
2 43254  86.3954 291.7942 0001986  96.5070 263.6352 14.34217521429664
IRIDIUM 148             
1 43255U 18030G   26164.86267877  .00000041  00000+0  77324-5 0  9993
2 43255  86.3956 291.8504 0002238  97.1215 263.0235 14.34217695429690
IRIDIUM 142             
1 43256U 18030H   26164.90073324  .00000201  00000+0  64665-4 0  9992
2 43256  86.3953 291.7236 0002041  97.3881 262.7547 14.34218051429668
IRIDIUM 150             
1 43257U 18030J   26164.86902104  .00000006  00000+0 -50666-5 0  9996
2 43257  86.3955 291.8533 0002016  93.3885 266.7541 14.34217482429681
IRIDIUM 143             
1 43258U 18030K   26164.84999273  .00000200  00000+0  64230-4 0  9994
2 43258  86.3962 291.9537 0002111  97.1948 262.9488 14.34216775429618
IRIDIUM 161             
1 43478U 18047C   26164.84111619  .00000299  00000+0  82896-4 0  9992
2 43478  86.4483  89.8702 0002544  85.8888 274.2604 14.43281360424653
IRIDIUM 152             
1 43479U 18047D   26164.89248037  .00000036  00000+0  56910-5 0  9991
2 43479  86.3959  89.7098 0002339  83.2192 276.9270 14.34217708422011
IRIDIUM 147             
1 43480U 18047E   26164.89882264  .00000011  00000+0 -32099-5 0  9995
2 43480  86.3960  89.7122 0002142  85.2894 274.8547 14.34217514422015
IRIDIUM 110             
1 43481U 18047F   26164.83539592  .00000086  00000+0  23746-4 0  9992
2 43481  86.3962  89.8305 0002578  83.7903 276.3587 14.34218480421999
IRIDIUM 162             
1 43482U 18047G   26164.83482353  .00000294  00000+0  81259-4 0  9999
2 43482  86.4481  89.7638 0002299  82.7593 277.3869 14.43279984424644
IRIDIUM 160             
1 43569U 18061A   26164.78123285  .00000046  00000+0  94396-5 0  9993
2 43569  86.3965  58.2215 0002264  85.3148 274.8306 14.34217706412880
IRIDIUM 166             
1 43570U 18061B   26164.94613975  .00000066  00000+0  16398-4 0  9990
2 43570  86.3965  58.1032 0002115  85.6781 274.4657 14.34217881412934
IRIDIUM 158             
1 43571U 18061C   26164.98419573  .00000031  00000+0  41299-5 0  9994
2 43571  86.3963  58.0971 0002210  81.7934 278.3513 14.34217484412907
IRIDIUM 165             
1 43572U 18061D   26164.93979579  .00000121  00000+0  36081-4 0  9999
2 43572  86.3966  58.1621 0002073  85.9970 274.1463 14.34217306412920
IRIDIUM 155             
1 43573U 18061E   26164.97150998  .00000015  00000+0 -18699-5 0  9999
2 43573  86.3957  58.0178 0002008  81.7334 278.4090 14.34217558412891
