OBJECT_NAME,OBJECT_ID,EPOCH,MEAN_MOTION,ECCENTRICITY,INCLINATION,RA_OF_ASC_NODE,ARG_OF_PERICENTER,MEAN_ANOMALY,EPHEMERIS_TYPE,CLASSIFICATION_TYPE,NORAD_CAT_ID,ELEMENT_SET_NO,REV_AT_EPOCH,BSTAR,MEAN_MOTION_DOT,MEAN_MOTION_DDOT
IRIDIUM 135,2017-083A,2026-06-13T22:36:47.160000,14.34217579,.00020586,86.3959,323.3724,91.5502,268.5930,0,U,43070,999,44368,-.2910673E-5,.12E-6,0
IRIDIUM 138,2017-083B,2026-06-13T21:32:51.078624,14.34218630,.00023344,86.3975,323.0860,86.5751,273.5711,0,U,43071,999,44366,.28638545E-4,.1E-5,0
IRIDIUM 116,2017-083C,2026-06-13T22:27:39.120480,14.34217955,.00019176,86.3960,323.3609,97.1559,262.9855,0,U,43072,999,44370,.13866688E-4,.59E-6,0
IRIDIUM 130,2017-083D,2026-06-13T21:41:59.119008,14.34217217,.00018285,86.3966,323.6493,90.5684,269.5722,0,U,43073,999,44364,-.17587055E-4,-.29E-6,0
IRIDIUM 151,2017-083E,2026-06-13T22:45:55.179648,14.34217647,.00021451,86.3963,323.4134,92.4903,267.6539,0,U,43074,999,44367,.918966E-6,.22E-6,0
IRIDIUM 134,2017-083F,2026-06-13T22:00:15.127200,14.34217951,.00020836,86.3964,323.4345,90.2271,269.9163,0,U,43075,999,44363,.6831608E-5,.39E-6,0
IRIDIUM 137,2017-083G,2026-06-13T22:18:31.150944,14.34217887,.00021582,86.3965,323.5220,103.6241,256.5196,0,U,43076,999,44370,.11426494E-4,.52E-6,0
IRIDIUM 141,2017-083H,2026-06-13T22:09:23.165856,14.34217598,.00020909,86.3957,323.3556,90.8474,269.2961,0,U,43077,999,44370,-.1799244E-5,.15E-6,0
IRIDIUM 153,2017-083J,2026-06-13T21:00:31.443552,14.34217678,.00022843,86.3957,291.8557,90.0509,270.0949,0,U,43078,999,44480,-.724202E-6,.18E-6,0
IRIDIUM 131,2017-083K,2026-06-13T21:51:07.121376,14.34218316,.00022042,86.3967,323.5465,91.9216,268.2232,0,U,43079,999,44363,.27578594E-4,.97E-6,0
IRIDIUM 144,2018-030A,2026-06-13T21:09:39.348288,14.34218015,.00020838,86.3956,291.7822,96.1074,264.0359,0,U,43249,999,42966,.11360786E-4,.52E-6,0
IRIDIUM 149,2018-030B,2026-06-13T21:18:47.411136,14.34217616,.0002138,86.3952,291.7467,93.4710,266.6730,0,U,43250,999,42968,-.2891871E-5,.12E-6,0
IRIDIUM 157,2018-030C,2026-06-13T20:05:43.406880,14.34217747,.00021896,86.3956,291.8209,93.9661,266.1785,0,U,43251,999,42965,-.957068E-6,.17E-6,0
IRIDIUM 140,2018-030D,2026-06-13T20:33:07.401024,14.34217576,.00020093,86.3954,291.8257,93.1887,266.9539,0,U,43252,999,42971,-.1201977E-5,.16E-6,0
IRIDIUM 145,2018-030E,2026-06-13T20:14:51.358272,14.34217605,.00019398,86.3955,291.8031,99.8726,260.2689,0,U,43253,999,42964,.16480285E-4,.66E-6,0
IRIDIUM 146,2018-030F,2026-06-13T21:27:55.412640,14.34217521,.00019863,86.3954,291.7942,96.5070,263.6352,0,U,43254,999,42966,-.3974554E-5,.9E-7,0
IRIDIUM 148,2018-030G,2026-06-13T20:42:15.445728,14.34217695,.00022386,86.3956,291.8504,97.1215,263.0235,0,U,43255,999,42969,.7732417E-5,.41E-6,0
IRIDIUM 142,2018-030H,2026-06-13T21:37:03.351936,14.34218051,.00020414,86.3953,291.7236,97.3881,262.7547,0,U,43256,999,42966,.64664545E-4,.201E-5,0
IRIDIUM 150,2018-030J,2026-06-13T20:51:23.417856,14.34217482,.0002016,86.3955,291.8533,93.3885,266.7541,0,U,43257,999,42968,-.5066649E-5,.6E-7,0
IRIDIUM 143,2018-030K,2026-06-13T20:23:59.371872,14.34216775,.00021112,86.3962,291.9537,97.1948,262.9488,0,U,43258,999,42961,.64229707E-4,.2E-5,0
IRIDIUM 161,2018-047C,2026-06-13T20:11:12.438816,14.43281360,.00025447,86.4483,89.8702,85.8888,274.2604,0,U,43478,999,42465,.82896117E-4,.299E-5,0
IRIDIUM 152,2018-047D,2026-06-13T21:25:10.303968,14.34217708,.00023395,86.3959,89.7098,83.2192,276.9270,0,U,43479,999,42201,.5691024E-5,.36E-6,0
IRIDIUM 147,2018-047E,2026-06-13T21:34:18.276096,14.34217514,.00021427,86.3960,89.7122,85.2894,274.8547,0,U,43480,999,42201,-.320988E-5,.11E-6,0
IRIDIUM 110,2018-047F,2026-06-13T20:02:58.207488,14.34218480,.00025781,86.3962,89.8305,83.7903,276.3587,0,U,43481,999,42199,.2374584E-4,.86E-6,0
IRIDIUM 162,2018-047G,2026-06-13T20:02:08.752992,14.43279984,.00022993,86.4481,89.7638,82.7593,277.3869,0,U,43482,999,42464,.81258803E-4,.294E-5,0
IRIDIUM 160,2018-061A,2026-06-13T18:44:58.518240,14.34217706,.00022643,86.3965,58.2215,85.3148,274.8306,0,U,43569,999,41288,.9439602E-5,.46E-6,0
IRIDIUM 166,2018-061B,2026-06-13T22:42:26.474400,14.34217881,.00021158,86.3965,58.1032,85.6781,274.4657,0,U,43570,999,41293,.16397759E-4,.66E-6,0
IRIDIUM 158,2018-061C,2026-06-13T23:37:14.511072,14.34217484,.00022102,86.3963,58.0971,81.7934,278.3513,0,U,43571,999,41290,.4129872E-5,.31E-6,0
IRIDIUM 165,2018-061D,2026-06-13T22:33:18.356256,14.34217306,.00020736,86.3966,58.1621,85.9970,274.1463,0,U,43572,999,41292,.3608117E-4,.121E-5,0
IRIDIUM 155,2018-061E,2026-06-13T23:18:58.462272,14.34217558,.00020081,86.3957,58.0178,81.7334,278.4090,0,U,43573,999,41289,-.1869877E-5,.15E-6,0
